{"type": "FeatureCollection", "features": [ {"type": "Feature", "properties": {"norad_id": 66889, "name": "STARLINK-35852", "group": "last-30-days", "lat": 52.77560537729704, "lon": 130.45894048953767, "alt_km": 339.25493407510294, "timestamp": "2025-12-21T05:44:50.292543+00:00", "meta": {"OBJECT_NAME": "STARLINK-35852", "OBJECT_ID": "2025-283M", "EPOCH": "2025-12-20T22:00:01.999584", "MEAN_MOTION": 15.74192219, "ECCENTRICITY": 9.273e-05, "INCLINATION": 53.1578, "RA_OF_ASC_NODE": 32.7919, "ARG_OF_PERICENTER": 96.7449, "MEAN_ANOMALY": 328.557, "EPHEMERIS_TYPE": 0, "CLASSIFICATION_TYPE": "U", "NORAD_CAT_ID": 66889, "ELEMENT_SET_NO": 999, "REV_AT_EPOCH": 374, "BSTAR": -0.00022290358, "MEAN_MOTION_DOT": -0.00033149, "MEAN_MOTION_DDOT": 0}, "tle": {"line1": "1 66889U 25283M   25354.91668981 -.00033149  00000+0 -22290-3 0  9993", "line2": "2 66889  53.1578  32.7919 0000927  96.7449 328.5570 15.74192219  3741"}}, "geometry": {"type": "Point", "coordinates": [130.45894048953767, 52.77560537729704]}}, {"type": "Feature", "properties": {"norad_id": 66890, "name": "STARLINK-35885", "group": "last-30-days", "lat": 52.48711522912212, "lon": 133.58139787334764, "alt_km": 339.19568160431027, "timestamp": "2025-12-21T05:44:50.292553+00:00", "meta": {"OBJECT_NAME": "STARLINK-35885", "OBJECT_ID": "2025-283N", "EPOCH": "2025-12-20T22:00:01.999584", "MEAN_MOTION": 15.74176475, "ECCENTRICITY": 0.00010789, "INCLINATION": 53.1579, "RA_OF_ASC_NODE": 32.7884, "ARG_OF_PERICENTER": 97.618, "MEAN_ANOMALY": 329.6093, "EPHEMERIS_TYPE": 0, "CLASSIFICATION_TYPE": "U", "NORAD_CAT_ID": 66890, "ELEMENT_SET_NO": 999, "REV_AT_EPOCH": 374, "BSTAR": -6.709824e-05, "MEAN_MOTION_DOT": -0.00010438, "MEAN_MOTION_DDOT": 0}, "tle": {"line1": "1 66890U 25283N   25354.91668981 -.00010438  00000+0 -67098-4 0  9997", "line2": "2 66890  53.1579  32.7884 0001078  97.6180 329.6093 15.74176475  3743"}}, "geometry": {"type": "Point", "coordinates": [133.58139787334764, 52.48711522912212]}}, {"type": "Feature", "properties": {"norad_id": 66891, "name": "STARLINK-35855", "group": "last-30-days", "lat": 52.11752034955108, "lon": 136.65293556619645, "alt_km": 339.13276677265185, "timestamp": "2025-12-21T05:44:50.292565+00:00", "meta": {"OBJECT_NAME": "STARLINK-35855", "OBJECT_ID": "2025-283P", "EPOCH": "2025-12-20T22:00:01.999584", "MEAN_MOTION": 15.7417177, "ECCENTRICITY": 0.00012723, "INCLINATION": 53.1576, "RA_OF_ASC_NODE": 32.7842, "ARG_OF_PERICENTER": 97.8363, "MEAN_ANOMALY": 331.3105, "EPHEMERIS_TYPE": 0, "CLASSIFICATION_TYPE": "U", "NORAD_CAT_ID": 66891, "ELEMENT_SET_NO": 999, "REV_AT_EPOCH": 374, "BSTAR": -8.3885697e-05, "MEAN_MOTION_DOT": -0.00012887, "MEAN_MOTION_DDOT": 0}, "tle": {"line1": "1 66891U 25283P   25354.91668981 -.00012887  00000+0 -83886-4 0  9991", "line2": "2 66891  53.1576  32.7842 0001272  97.8363 331.3105 15.74171770  3743"}}, "geometry": {"type": "Point", "coordinates": [136.65293556619645, 52.11752034955108]}}, {"type": "Feature", "properties": {"norad_id": 66892, "name": "STARLINK-35883", "group": "last-30-days", "lat": 51.6675654226075, "lon": 139.6823080829557, "alt_km": 339.32548496596064, "timestamp": "2025-12-21T05:44:50.292575+00:00", "meta": {"OBJECT_NAME": "STARLINK-35883", "OBJECT_ID": "2025-283Q", "EPOCH": "2025-12-20T22:00:01.999584", "MEAN_MOTION": 15.74179983, "ECCENTRICITY": 0.00011031, "INCLINATION": 53.1578, "RA_OF_ASC_NODE": 32.7799, "ARG_OF_PERICENTER": 80.0746, "MEAN_ANOMALY": 350.9798, "EPHEMERIS_TYPE": 0, "CLASSIFICATION_TYPE": "U", "NORAD_CAT_ID": 66892, "ELEMENT_SET_NO": 999, "REV_AT_EPOCH": 368, "BSTAR": -6.7444948e-05, "MEAN_MOTION_DOT": -0.0001049, "MEAN_MOTION_DDOT": 0}, "tle": {"line1": "1 66892U 25283Q   25354.91668981 -.00010490  00000+0 -67445-4 0  9993", "line2": "2 66892  53.1578  32.7799 0001103  80.0746 350.9798 15.74179983  3681"}}, "geometry": {"type": "Point", "coordinates": [139.6823080829557, 51.6675654226075]}}, {"type": "Feature", "properties": {"norad_id": 66893, "name": "STARLINK-36033", "group": "last-30-days", "lat": 51.14122898335559, "lon": 142.64556553381436, "alt_km": 339.4179762360054, "timestamp": "2025-12-21T05:44:50.292585+00:00", "meta": {"OBJECT_NAME": "STARLINK-36033", "OBJECT_ID": "2025-283R", "EPOCH": "2025-12-20T22:00:01.999584", "MEAN_MOTION": 15.74201419, "ECCENTRICITY": 0.00010354, "INCLINATION": 53.1578, "RA_OF_ASC_NODE": 32.776, "ARG_OF_PERICENTER": 89.6439, "MEAN_ANOMALY": 343.322, "EPHEMERIS_TYPE": 0, "CLASSIFICATION_TYPE": "U", "NORAD_CAT_ID": 66893, "ELEMENT_SET_NO": 999, "REV_AT_EPOCH": 374, "BSTAR": -0.00031318888, "MEAN_MOTION_DOT": -0.00046269, "MEAN_MOTION_DDOT": 0}, "tle": {"line1": "1 66893U 25283R   25354.91668981 -.00046269  00000+0 -31319-3 0  9997", "line2": "2 66893  53.1578  32.7760 0001035  89.6439 343.3220 15.74201419  3741"}}, "geometry": {"type": "Point", "coordinates": [142.64556553381436, 51.14122898335559]}}, {"type": "Feature", "properties": {"norad_id": 66894, "name": "STARLINK-35718", "group": "last-30-days", "lat": 50.54434620096208, "lon": 145.52433243930744, "alt_km": 339.50973807558785, "timestamp": "2025-12-21T05:44:50.292595+00:00", "meta": {"OBJECT_NAME": "STARLINK-35718", "OBJECT_ID": "2025-283S", "EPOCH": "2025-12-20T22:00:01.999584", "MEAN_MOTION": 15.74194549, "ECCENTRICITY": 0.00010289, "INCLINATION": 53.1576, "RA_OF_ASC_NODE": 32.7724, "ARG_OF_PERICENTER": 89.6437, "MEAN_ANOMALY": 345.2378, "EPHEMERIS_TYPE": 0, "CLASSIFICATION_TYPE": "U", "NORAD_CAT_ID": 66894, "ELEMENT_SET_NO": 999, "REV_AT_EPOCH": 374, "BSTAR": -0.00023583933, "MEAN_MOTION_DOT": -0.00035033, "MEAN_MOTION_DDOT": 0}, "tle": {"line1": "1 66894U 25283S   25354.91668981 -.00035033  00000+0 -23584-3 0  9990", "line2": "2 66894  53.1576  32.7724 0001028  89.6437 345.2378 15.74194549  3740"}}, "geometry": {"type": "Point", "coordinates": [145.52433243930744, 50.54434620096208]}}, {"type": "Feature", "properties": {"norad_id": 66895, "name": "STARLINK-35971", "group": "last-30-days", "lat": 49.14016841281756, "lon": 151.07098772228633, "alt_km": 339.58318539118955, "timestamp": "2025-12-21T05:44:50.292609+00:00", "meta": {"OBJECT_NAME": "STARLINK-35971", "OBJECT_ID": "2025-283T", "EPOCH": "2025-12-20T22:00:01.999584", "MEAN_MOTION": 15.74188446, "ECCENTRICITY": 0.00011938, "INCLINATION": 53.1579, "RA_OF_ASC_NODE": 32.7631, "ARG_OF_PERICENTER": 100.1523, "MEAN_ANOMALY": 338.5752, "EPHEMERIS_TYPE": 0, "CLASSIFICATION_TYPE": "U", "NORAD_CAT_ID": 66895, "ELEMENT_SET_NO": 999, "REV_AT_EPOCH": 374, "BSTAR": -0.00017605125, "MEAN_MOTION_DOT": -0.00026331, "MEAN_MOTION_DDOT": 0}, "tle": {"line1": "1 66895U 25283T   25354.91668981 -.00026331  00000+0 -17605-3 0  9999", "line2": "2 66895  53.1579  32.7631 0001193 100.1523 338.5752 15.74188446  3749"}}, "geometry": {"type": "Point", "coordinates": [151.07098772228633, 49.14016841281756]}}, {"type": "Feature", "properties": {"norad_id": 66896, "name": "STARLINK-35791", "group": "last-30-days", "lat": 49.87821581468048, "lon": 148.32556416532148, "alt_km": 339.5068587227688, "timestamp": "2025-12-21T05:44:50.292619+00:00", "meta": {"OBJECT_NAME": "STARLINK-35791", "OBJECT_ID": "2025-283U", "EPOCH": "2025-12-20T22:00:01.999584", "MEAN_MOTION": 15.74171042, "ECCENTRICITY": 0.00011497, "INCLINATION": 53.1575, "RA_OF_ASC_NODE": 32.7672, "ARG_OF_PERICENTER": 99.4287, "MEAN_ANOMALY": 337.3804, "EPHEMERIS_TYPE": 0, "CLASSIFICATION_TYPE": "U", "NORAD_CAT_ID": 66896, "ELEMENT_SET_NO": 999, "REV_AT_EPOCH": 374, "BSTAR": 1.0320986e-05, "MEAN_MOTION_DOT": 8.81e-06, "MEAN_MOTION_DDOT": 0}, "tle": {"line1": "1 66896U 25283U   25354.91668981  .00000881  00000+0  10321-4 0  9999", "line2": "2 66896  53.1575  32.7672 0001149  99.4287 337.3804 15.74171042  3748"}}, "geometry": {"type": "Point", "coordinates": [148.32556416532148, 49.87821581468048]}}, {"type": "Feature", "properties": {"norad_id": 66897, "name": "STARLINK-36079", "group": "last-30-days", "lat": 48.34454185810068, "lon": 153.7126210115287, "alt_km": 339.82352513942897, "timestamp": "2025-12-21T05:44:50.292632+00:00", "meta": {"OBJECT_NAME": "STARLINK-36079", "OBJECT_ID": "2025-283V", "EPOCH": "2025-12-20T22:00:01.999584", "MEAN_MOTION": 15.7419504, "ECCENTRICITY": 0.00010297, "INCLINATION": 53.1576, "RA_OF_ASC_NODE": 32.7597, "ARG_OF_PERICENTER": 95.6551, "MEAN_ANOMALY": 344.9822, "EPHEMERIS_TYPE": 0, "CLASSIFICATION_TYPE": "U", "NORAD_CAT_ID": 66897, "ELEMENT_SET_NO": 999, "REV_AT_EPOCH": 374, "BSTAR": -0.00025795837, "MEAN_MOTION_DOT": -0.00038246, "MEAN_MOTION_DDOT": 0}, "tle": {"line1": "1 66897U 25283V   25354.91668981 -.00038246  00000+0 -25796-3 0  9999", "line2": "2 66897  53.1576  32.7597 0001029  95.6551 344.9822 15.74195040  3743"}}, "geometry": {"type": "Point", "coordinates": [153.7126210115287, 48.34454185810068]}}, {"type": "Feature", "properties": {"norad_id": 66898, "name": "STARLINK-36065", "group": "last-30-days", "lat": 47.4906157252003, "lon": 156.26942749285396, "alt_km": 339.9876323357621, "timestamp": "2025-12-21T05:44:50.292642+00:00", "meta": {"OBJECT_NAME": "STARLINK-36065", "OBJECT_ID": "2025-283W", "EPOCH": "2025-12-20T22:00:01.999584", "MEAN_MOTION": 15.74186436, "ECCENTRICITY": 0.00010125, "INCLINATION": 53.1579, "RA_OF_ASC_NODE": 32.7551, "ARG_OF_PERICENTER": 92.2974, "MEAN_ANOMALY": 350.2605, "EPHEMERIS_TYPE": 0, "CLASSIFICATION_TYPE": "U", "NORAD_CAT_ID": 66898, "ELEMENT_SET_NO": 999, "REV_AT_EPOCH": 374, "BSTAR": -0.00020922758, "MEAN_MOTION_DOT": -0.00031154, "MEAN_MOTION_DDOT": 0}, "tle": {"line1": "1 66898U 25283W   25354.91668981 -.00031154  00000+0 -20923-3 0  9998", "line2": "2 66898  53.1579  32.7551 0001012  92.2974 350.2605 15.74186436  3749"}}, "geometry": {"type": "Point", "coordinates": [156.26942749285396, 47.4906157252003]}}]}